2026-027B               
1 67747U 26027B   26064.74606178  .00011030  00000+0  54916-3 0  9997
2 67747  97.4898 193.8027 0009996 210.5260 149.5393 15.17719349  3269
2026-027C               
1 67748U 26027C   26064.74468788  .00007664  00000+0  38237-3 0  9997
2 67748  97.4910 193.8080 0010353 213.1161 146.9426 15.17751747  3268
2026-027D               
1 67749U 26027D   26064.74167205  .00012710  00000+0  62592-3 0  9997
2 67749  97.4905 193.8108 0010002 218.2955 141.7569 15.18065688  3211
2026-027E               
1 67750U 26027E   26064.74175984  .00010851  00000+0  53568-3 0  9999
2 67750  97.4915 193.8137 0009228 218.9947 141.0622 15.18026092  3266
2026-027F               
1 67751U 26027F   26064.73966765  .00014433  00000+0  70514-3 0  9994
2 67751  97.4914 193.8170 0010392 219.9147 140.1324 15.18309475  3268
2026-027G               
1 67752U 26027G   26063.55439154  .00012661  00000+0  66333-3 0  9996
2 67752  97.4863 192.6273 0009268 274.5857  85.4317 15.15895723  3084
JIELONG-3 R/B           
1 67753U 26027H   26064.75702344  .00456307  23767-5  66612-3 0  9994
2 67753  97.5127 195.4651 0226740 259.2908  98.2753 15.71820324  3367
JIELONG-3 DEB           
1 67754U 26027J   26064.67661333  .02103630  24504-5  12692-2 0  9996
2 67754  97.5033 195.7231 0141513 259.4540  99.0770 15.99823818  3313
2026-028A               
1 67756U 26028A   26064.32694166  .00000004  00000+0  00000+0 0  9996
2 67756   0.4807 289.7482 0041996 229.1276 201.2673  0.99523916   218
JAM-E JAM 1             
1 67757U 26028B   26064.66146838  .00000148  00000+0  00000+0 0  9991
2 67757   0.5017 285.6585 0004555 110.0978  40.4556  1.00239916    84
KUIPER-00159            
1 67764U 26030A   26064.72765912  .00031036  00000+0  89117-3 0  9999
2 67764  51.8850 238.2710 0004771  34.5720 325.5576 15.35567941  4487
KUIPER-00160            
1 67765U 26030B   26064.72889424  .00034487  00000+0  99366-3 0  9995
2 67765  51.8816 238.2707 0005036  43.8923 316.2463 15.35405901  4488
