CCSDS_OMM_VERS = 2.0
CREATION_DATE  = 
ORIGINATOR     = 

OBJECT_NAME    = 2026-027B
OBJECT_ID      = 2026-027B
CENTER_NAME    = EARTH
REF_FRAME      = TEME
TIME_SYSTEM    = UTC
MEAN_ELEMENT_THEORY = SGP/SGP4

EPOCH          = 2026-03-05T17:54:19.737792
MEAN_MOTION    = 15.17719349
ECCENTRICITY   = .0009996
INCLINATION    = 97.4898
RA_OF_ASC_NODE = 193.8027
ARG_OF_PERICENTER = 210.5260
MEAN_ANOMALY   = 149.5393

EPHEMERIS_TYPE = 0
CLASSIFICATION_TYPE = U
NORAD_CAT_ID   = 67747
ELEMENT_SET_NO = 999
REV_AT_EPOCH   = 326
BSTAR          = .54916E-3
MEAN_MOTION_DOT = .1103E-3
MEAN_MOTION_DDOT = 0

CCSDS_OMM_VERS = 2.0
CREATION_DATE  = 
ORIGINATOR     = 

OBJECT_NAME    = 2026-027C
OBJECT_ID      = 2026-027C
CENTER_NAME    = EARTH
REF_FRAME      = TEME
TIME_SYSTEM    = UTC
MEAN_ELEMENT_THEORY = SGP/SGP4

EPOCH          = 2026-03-05T17:52:21.032832
MEAN_MOTION    = 15.17751747
ECCENTRICITY   = .0010353
INCLINATION    = 97.4910
RA_OF_ASC_NODE = 193.8080
ARG_OF_PERICENTER = 213.1161
MEAN_ANOMALY   = 146.9426

EPHEMERIS_TYPE = 0
CLASSIFICATION_TYPE = U
NORAD_CAT_ID   = 67748
ELEMENT_SET_NO = 999
REV_AT_EPOCH   = 326
BSTAR          = .38237E-3
MEAN_MOTION_DOT = .7664E-4
MEAN_MOTION_DDOT = 0

CCSDS_OMM_VERS = 2.0
CREATION_DATE  = 
ORIGINATOR     = 

OBJECT_NAME    = 2026-027D
OBJECT_ID      = 2026-027D
CENTER_NAME    = EARTH
REF_FRAME      = TEME
TIME_SYSTEM    = UTC
MEAN_ELEMENT_THEORY = SGP/SGP4

EPOCH          = 2026-03-05T17:48:00.465120
MEAN_MOTION    = 15.18065688
ECCENTRICITY   = .0010002
INCLINATION    = 97.4905
RA_OF_ASC_NODE = 193.8108
ARG_OF_PERICENTER = 218.2955
MEAN_ANOMALY   = 141.7569

EPHEMERIS_TYPE = 0
CLASSIFICATION_TYPE = U
NORAD_CAT_ID   = 67749
ELEMENT_SET_NO = 999
REV_AT_EPOCH   = 321
BSTAR          = .62592E-3
MEAN_MOTION_DOT = .1271E-3
MEAN_MOTION_DDOT = 0

CCSDS_OMM_VERS = 2.0
CREATION_DATE  = 
ORIGINATOR     = 

OBJECT_NAME    = 2026-027E
OBJECT_ID      = 2026-027E
CENTER_NAME    = EARTH
REF_FRAME      = TEME
TIME_SYSTEM    = UTC
MEAN_ELEMENT_THEORY = SGP/SGP4

EPOCH          = 2026-03-05T17:48:08.050176
MEAN_MOTION    = 15.18026092
ECCENTRICITY   = .0009228
INCLINATION    = 97.4915
RA_OF_ASC_NODE = 193.8137
ARG_OF_PERICENTER = 218.9947
MEAN_ANOMALY   = 141.0622

EPHEMERIS_TYPE = 0
CLASSIFICATION_TYPE = U
NORAD_CAT_ID   = 67750
ELEMENT_SET_NO = 999
REV_AT_EPOCH   = 326
BSTAR          = .53568E-3
MEAN_MOTION_DOT = .10851E-3
MEAN_MOTION_DDOT = 0

CCSDS_OMM_VERS = 2.0
CREATION_DATE  = 
ORIGINATOR     = 

OBJECT_NAME    = 2026-027F
OBJECT_ID      = 2026-027F
CENTER_NAME    = EARTH
REF_FRAME      = TEME
TIME_SYSTEM    = UTC
MEAN_ELEMENT_THEORY = SGP/SGP4

EPOCH          = 2026-03-05T17:45:07.284960
MEAN_MOTION    = 15.18309475
ECCENTRICITY   = .0010392
INCLINATION    = 97.4914
RA_OF_ASC_NODE = 193.8170
ARG_OF_PERICENTER = 219.9147
MEAN_ANOMALY   = 140.1324

EPHEMERIS_TYPE = 0
CLASSIFICATION_TYPE = U
NORAD_CAT_ID   = 67751
ELEMENT_SET_NO = 999
REV_AT_EPOCH   = 326
BSTAR          = .70514E-3
MEAN_MOTION_DOT = .14433E-3
MEAN_MOTION_DDOT = 0

CCSDS_OMM_VERS = 2.0
CREATION_DATE  = 
ORIGINATOR     = 

OBJECT_NAME    = 2026-027G
OBJECT_ID      = 2026-027G
CENTER_NAME    = EARTH
REF_FRAME      = TEME
TIME_SYSTEM    = UTC
MEAN_ELEMENT_THEORY = SGP/SGP4

EPOCH          = 2026-03-04T13:18:19.429056
MEAN_MOTION    = 15.15895723
ECCENTRICITY   = .0009268
INCLINATION    = 97.4863
RA_OF_ASC_NODE = 192.6273
ARG_OF_PERICENTER = 274.5857
MEAN_ANOMALY   = 85.4317

EPHEMERIS_TYPE = 0
CLASSIFICATION_TYPE = U
NORAD_CAT_ID   = 67752
ELEMENT_SET_NO = 999
REV_AT_EPOCH   = 308
BSTAR          = .66333E-3
MEAN_MOTION_DOT = .12661E-3
MEAN_MOTION_DDOT = 0

CCSDS_OMM_VERS = 2.0
CREATION_DATE  = 
ORIGINATOR     = 

OBJECT_NAME    = JIELONG-3 R/B
OBJECT_ID      = 2026-027H
CENTER_NAME    = EARTH
REF_FRAME      = TEME
TIME_SYSTEM    = UTC
MEAN_ELEMENT_THEORY = SGP/SGP4

EPOCH          = 2026-03-05T18:10:06.825216
MEAN_MOTION    = 15.71820324
ECCENTRICITY   = .022674
INCLINATION    = 97.5127
RA_OF_ASC_NODE = 195.4651
ARG_OF_PERICENTER = 259.2908
MEAN_ANOMALY   = 98.2753

EPHEMERIS_TYPE = 0
CLASSIFICATION_TYPE = U
NORAD_CAT_ID   = 67753
ELEMENT_SET_NO = 999
REV_AT_EPOCH   = 336
BSTAR          = .66612E-3
MEAN_MOTION_DOT = .456307E-2
MEAN_MOTION_DDOT = .23767E-5

CCSDS_OMM_VERS = 2.0
CREATION_DATE  = 
ORIGINATOR     = 

OBJECT_NAME    = JIELONG-3 DEB
OBJECT_ID      = 2026-027J
CENTER_NAME    = EARTH
REF_FRAME      = TEME
TIME_SYSTEM    = UTC
MEAN_ELEMENT_THEORY = SGP/SGP4

EPOCH          = 2026-03-05T16:14:19.391712
MEAN_MOTION    = 15.99823818
ECCENTRICITY   = .0141513
INCLINATION    = 97.5033
RA_OF_ASC_NODE = 195.7231
ARG_OF_PERICENTER = 259.4540
MEAN_ANOMALY   = 99.0770

EPHEMERIS_TYPE = 0
CLASSIFICATION_TYPE = U
NORAD_CAT_ID   = 67754
ELEMENT_SET_NO = 999
REV_AT_EPOCH   = 331
BSTAR          = .12692E-2
MEAN_MOTION_DOT = .210363E-1
MEAN_MOTION_DDOT = .24504E-5

CCSDS_OMM_VERS = 2.0
CREATION_DATE  = 
ORIGINATOR     = 

OBJECT_NAME    = 2026-028A
OBJECT_ID      = 2026-028A
CENTER_NAME    = EARTH
REF_FRAME      = TEME
TIME_SYSTEM    = UTC
MEAN_ELEMENT_THEORY = SGP/SGP4

EPOCH          = 2026-03-05T07:50:47.759424
MEAN_MOTION    = 0.99523916
ECCENTRICITY   = .0041996
INCLINATION    = 0.4807
RA_OF_ASC_NODE = 289.7482
ARG_OF_PERICENTER = 229.1276
MEAN_ANOMALY   = 201.2673

EPHEMERIS_TYPE = 0
CLASSIFICATION_TYPE = U
NORAD_CAT_ID   = 67756
ELEMENT_SET_NO = 999
REV_AT_EPOCH   = 21
BSTAR          = 0
MEAN_MOTION_DOT = .4E-7
MEAN_MOTION_DDOT = 0

CCSDS_OMM_VERS = 2.0
CREATION_DATE  = 
ORIGINATOR     = 

OBJECT_NAME    = JAM-E JAM 1
OBJECT_ID      = 2026-028B
CENTER_NAME    = EARTH
REF_FRAME      = TEME
TIME_SYSTEM    = UTC
MEAN_ELEMENT_THEORY = SGP/SGP4

EPOCH          = 2026-03-05T15:52:30.868032
MEAN_MOTION    = 1.00239916
ECCENTRICITY   = .0004555
INCLINATION    = 0.5017
RA_OF_ASC_NODE = 285.6585
ARG_OF_PERICENTER = 110.0978
MEAN_ANOMALY   = 40.4556

EPHEMERIS_TYPE = 0
CLASSIFICATION_TYPE = U
NORAD_CAT_ID   = 67757
ELEMENT_SET_NO = 999
REV_AT_EPOCH   = 8
BSTAR          = 0
MEAN_MOTION_DOT = .148E-5
MEAN_MOTION_DDOT = 0

CCSDS_OMM_VERS = 2.0
CREATION_DATE  = 
ORIGINATOR     = 

OBJECT_NAME    = KUIPER-00159
OBJECT_ID      = 2026-030A
CENTER_NAME    = EARTH
REF_FRAME      = TEME
TIME_SYSTEM    = UTC
MEAN_ELEMENT_THEORY = SGP/SGP4

EPOCH          = 2026-03-05T17:27:49.747968
MEAN_MOTION    = 15.35567941
ECCENTRICITY   = .0004771
INCLINATION    = 51.8850
RA_OF_ASC_NODE = 238.2710
ARG_OF_PERICENTER = 34.5720
MEAN_ANOMALY   = 325.5576

EPHEMERIS_TYPE = 0
CLASSIFICATION_TYPE = U
NORAD_CAT_ID   = 67764
ELEMENT_SET_NO = 999
REV_AT_EPOCH   = 448
BSTAR          = .89117E-3
MEAN_MOTION_DOT = .31036E-3
MEAN_MOTION_DDOT = 0

CCSDS_OMM_VERS = 2.0
CREATION_DATE  = 
ORIGINATOR     = 

OBJECT_NAME    = KUIPER-00160
OBJECT_ID      = 2026-030B
CENTER_NAME    = EARTH
REF_FRAME      = TEME
TIME_SYSTEM    = UTC
MEAN_ELEMENT_THEORY = SGP/SGP4

EPOCH          = 2026-03-05T17:29:36.462336
MEAN_MOTION    = 15.35405901
ECCENTRICITY   = .0005036
INCLINATION    = 51.8816
RA_OF_ASC_NODE = 238.2707
ARG_OF_PERICENTER = 43.8923
MEAN_ANOMALY   = 316.2463

EPHEMERIS_TYPE = 0
CLASSIFICATION_TYPE = U
NORAD_CAT_ID   = 67765
ELEMENT_SET_NO = 999
REV_AT_EPOCH   = 448
BSTAR          = .99366E-3
MEAN_MOTION_DOT = .34487E-3
MEAN_MOTION_DDOT = 0

